<?xml version="1.0" encoding="UTF-8"?>
<ndm xmlns:xsi="http://www.w3.org/2001/XMLSchema-instance" xsi:noNamespaceSchemaLocation="https://sanaregistry.org/r/ndmxml_unqualified/ndmxml-2.0.0-master-2.0.xsd">
<omm id="CCSDS_OMM_VERS" version="2.0">
<header><CREATION_DATE/><ORIGINATOR/></header><body><segment><metadata><OBJECT_NAME>ORBCOMM FM103</OBJECT_NAME><OBJECT_ID>2014-040F</OBJECT_ID><CENTER_NAME>EARTH</CENTER_NAME><REF_FRAME>TEME</REF_FRAME><TIME_SYSTEM>UTC</TIME_SYSTEM><MEAN_ELEMENT_THEORY>SGP4</MEAN_ELEMENT_THEORY></metadata><data><meanElements><EPOCH>2024-10-28T14:29:17.685024</EPOCH><MEAN_MOTION>14.57309400</MEAN_MOTION><ECCENTRICITY>.0002932</ECCENTRICITY><INCLINATION>47.0063</INCLINATION><RA_OF_ASC_NODE>30.8663</RA_OF_ASC_NODE><ARG_OF_PERICENTER>287.2219</ARG_OF_PERICENTER><MEAN_ANOMALY>72.8346</MEAN_ANOMALY></meanElements><tleParameters><EPHEMERIS_TYPE>0</EPHEMERIS_TYPE><CLASSIFICATION_TYPE>U</CLASSIFICATION_TYPE><NORAD_CAT_ID>40091</NORAD_CAT_ID><ELEMENT_SET_NO>999</ELEMENT_SET_NO><REV_AT_EPOCH>53031</REV_AT_EPOCH><BSTAR>.87797E-3</BSTAR><MEAN_MOTION_DOT>.3846E-4</MEAN_MOTION_DOT><MEAN_MOTION_DDOT>0</MEAN_MOTION_DDOT></tleParameters></data></segment></body></omm>
<omm id="CCSDS_OMM_VERS" version="2.0">
<header><CREATION_DATE/><ORIGINATOR/></header><body><segment><metadata><OBJECT_NAME>ORBCOMM FM114</OBJECT_NAME><OBJECT_ID>2015-081A</OBJECT_ID><CENTER_NAME>EARTH</CENTER_NAME><REF_FRAME>TEME</REF_FRAME><TIME_SYSTEM>UTC</TIME_SYSTEM><MEAN_ELEMENT_THEORY>SGP4</MEAN_ELEMENT_THEORY></metadata><data><meanElements><EPOCH>2024-10-28T11:54:26.368992</EPOCH><MEAN_MOTION>14.57312211</MEAN_MOTION><ECCENTRICITY>.0002594</ECCENTRICITY><INCLINATION>47.0020</INCLINATION><RA_OF_ASC_NODE>300.5689</RA_OF_ASC_NODE><ARG_OF_PERICENTER>349.1256</ARG_OF_PERICENTER><MEAN_ANOMALY>10.9572</MEAN_ANOMALY></meanElements><tleParameters><EPHEMERIS_TYPE>0</EPHEMERIS_TYPE><CLASSIFICATION_TYPE>U</CLASSIFICATION_TYPE><NORAD_CAT_ID>41179</NORAD_CAT_ID><ELEMENT_SET_NO>999</ELEMENT_SET_NO><REV_AT_EPOCH>47066</REV_AT_EPOCH><BSTAR>.80218E-3</BSTAR><MEAN_MOTION_DOT>.3499E-4</MEAN_MOTION_DOT><MEAN_MOTION_DDOT>0</MEAN_MOTION_DDOT></tleParameters></data></segment></body></omm>
<omm id="CCSDS_OMM_VERS" version="2.0">
<header><CREATION_DATE/><ORIGINATOR/></header><body><segment><metadata><OBJECT_NAME>ORBCOMM FM119</OBJECT_NAME><OBJECT_ID>2015-081B</OBJECT_ID><CENTER_NAME>EARTH</CENTER_NAME><REF_FRAME>TEME</REF_FRAME><TIME_SYSTEM>UTC</TIME_SYSTEM><MEAN_ELEMENT_THEORY>SGP4</MEAN_ELEMENT_THEORY></metadata><data><meanElements><EPOCH>2024-10-28T11:20:17.658240</EPOCH><MEAN_MOTION>14.57287946</MEAN_MOTION><ECCENTRICITY>.0000864</ECCENTRICITY><INCLINATION>46.9993</INCLINATION><RA_OF_ASC_NODE>209.9065</RA_OF_ASC_NODE><ARG_OF_PERICENTER>62.2558</ARG_OF_PERICENTER><MEAN_ANOMALY>297.8415</MEAN_ANOMALY></meanElements><tleParameters><EPHEMERIS_TYPE>0</EPHEMERIS_TYPE><CLASSIFICATION_TYPE>U</CLASSIFICATION_TYPE><NORAD_CAT_ID>41180</NORAD_CAT_ID><ELEMENT_SET_NO>999</ELEMENT_SET_NO><REV_AT_EPOCH>47191</REV_AT_EPOCH><BSTAR>.88923E-3</BSTAR><MEAN_MOTION_DOT>.3896E-4</MEAN_MOTION_DOT><MEAN_MOTION_DDOT>0</MEAN_MOTION_DDOT></tleParameters></data></segment></body></omm>
<omm id="CCSDS_OMM_VERS" version="2.0">
<header><CREATION_DATE/><ORIGINATOR/></header><body><segment><metadata><OBJECT_NAME>ORBCOMM FM105</OBJECT_NAME><OBJECT_ID>2015-081C</OBJECT_ID><CENTER_NAME>EARTH</CENTER_NAME><REF_FRAME>TEME</REF_FRAME><TIME_SYSTEM>UTC</TIME_SYSTEM><MEAN_ELEMENT_THEORY>SGP4</MEAN_ELEMENT_THEORY></metadata><data><meanElements><EPOCH>2024-10-28T09:16:08.824800</EPOCH><MEAN_MOTION>14.44772216</MEAN_MOTION><ECCENTRICITY>.0001855</ECCENTRICITY><INCLINATION>47.0008</INCLINATION><RA_OF_ASC_NODE>193.0383</RA_OF_ASC_NODE><ARG_OF_PERICENTER>347.2831</ARG_OF_PERICENTER><MEAN_ANOMALY>12.8002</MEAN_ANOMALY></meanElements><tleParameters><EPHEMERIS_TYPE>0</EPHEMERIS_TYPE><CLASSIFICATION_TYPE>U</CLASSIFICATION_TYPE><NORAD_CAT_ID>41181</NORAD_CAT_ID><ELEMENT_SET_NO>999</ELEMENT_SET_NO><REV_AT_EPOCH>46722</REV_AT_EPOCH><BSTAR>.52797E-3</BSTAR><MEAN_MOTION_DOT>.1693E-4</MEAN_MOTION_DOT><MEAN_MOTION_DDOT>0</MEAN_MOTION_DDOT></tleParameters></data></segment></body></omm>
<omm id="CCSDS_OMM_VERS" version="2.0">
<header><CREATION_DATE/><ORIGINATOR/></header><body><segment><metadata><OBJECT_NAME>ORBCOMM FM110</OBJECT_NAME><OBJECT_ID>2015-081D</OBJECT_ID><CENTER_NAME>EARTH</CENTER_NAME><REF_FRAME>TEME</REF_FRAME><TIME_SYSTEM>UTC</TIME_SYSTEM><MEAN_ELEMENT_THEORY>SGP4</MEAN_ELEMENT_THEORY></metadata><data><meanElements><EPOCH>2024-10-28T09:41:43.750176</EPOCH><MEAN_MOTION>14.57307793</MEAN_MOTION><ECCENTRICITY>.0000816</ECCENTRICITY><INCLINATION>47.0009</INCLINATION><RA_OF_ASC_NODE>300.3882</RA_OF_ASC_NODE><ARG_OF_PERICENTER>197.2307</ARG_OF_PERICENTER><MEAN_ANOMALY>162.8550</MEAN_ANOMALY></meanElements><tleParameters><EPHEMERIS_TYPE>0</EPHEMERIS_TYPE><CLASSIFICATION_TYPE>U</CLASSIFICATION_TYPE><NORAD_CAT_ID>41182</NORAD_CAT_ID><ELEMENT_SET_NO>999</ELEMENT_SET_NO><REV_AT_EPOCH>47052</REV_AT_EPOCH><BSTAR>.93949E-3</BSTAR><MEAN_MOTION_DOT>.4127E-4</MEAN_MOTION_DOT><MEAN_MOTION_DDOT>0</MEAN_MOTION_DDOT></tleParameters></data></segment></body></omm>
<omm id="CCSDS_OMM_VERS" version="2.0">
<header><CREATION_DATE/><ORIGINATOR/></header><body><segment><metadata><OBJECT_NAME>ORBCOMM FM118</OBJECT_NAME><OBJECT_ID>2015-081E</OBJECT_ID><CENTER_NAME>EARTH</CENTER_NAME><REF_FRAME>TEME</REF_FRAME><TIME_SYSTEM>UTC</TIME_SYSTEM><MEAN_ELEMENT_THEORY>SGP4</MEAN_ELEMENT_THEORY></metadata><data><meanElements><EPOCH>2024-10-28T09:09:57.496608</EPOCH><MEAN_MOTION>14.57320292</MEAN_MOTION><ECCENTRICITY>.0001166</ECCENTRICITY><INCLINATION>47.0033</INCLINATION><RA_OF_ASC_NODE>300.8401</RA_OF_ASC_NODE><ARG_OF_PERICENTER>195.3287</ARG_OF_PERICENTER><MEAN_ANOMALY>164.7563</MEAN_ANOMALY></meanElements><tleParameters><EPHEMERIS_TYPE>0</EPHEMERIS_TYPE><CLASSIFICATION_TYPE>U</CLASSIFICATION_TYPE><NORAD_CAT_ID>41183</NORAD_CAT_ID><ELEMENT_SET_NO>999</ELEMENT_SET_NO><REV_AT_EPOCH>47062</REV_AT_EPOCH><BSTAR>.95748E-3</BSTAR><MEAN_MOTION_DOT>.4211E-4</MEAN_MOTION_DOT><MEAN_MOTION_DDOT>0</MEAN_MOTION_DDOT></tleParameters></data></segment></body></omm>
<omm id="CCSDS_OMM_VERS" version="2.0">
<header><CREATION_DATE/><ORIGINATOR/></header><body><segment><metadata><OBJECT_NAME>ORBCOMM FM112</OBJECT_NAME><OBJECT_ID>2015-081F</OBJECT_ID><CENTER_NAME>EARTH</CENTER_NAME><REF_FRAME>TEME</REF_FRAME><TIME_SYSTEM>UTC</TIME_SYSTEM><MEAN_ELEMENT_THEORY>SGP4</MEAN_ELEMENT_THEORY></metadata><data><meanElements><EPOCH>2024-10-28T10:48:05.739552</EPOCH><MEAN_MOTION>14.57296625</MEAN_MOTION><ECCENTRICITY>.0001373</ECCENTRICITY><INCLINATION>46.9979</INCLINATION><RA_OF_ASC_NODE>209.2076</RA_OF_ASC_NODE><ARG_OF_PERICENTER>40.9413</ARG_OF_PERICENTER><MEAN_ANOMALY>319.1575</MEAN_ANOMALY></meanElements><tleParameters><EPHEMERIS_TYPE>0</EPHEMERIS_TYPE><CLASSIFICATION_TYPE>U</CLASSIFICATION_TYPE><NORAD_CAT_ID>41184</NORAD_CAT_ID><ELEMENT_SET_NO>999</ELEMENT_SET_NO><REV_AT_EPOCH>47185</REV_AT_EPOCH><BSTAR>.12273E-2</BSTAR><MEAN_MOTION_DOT>.5443E-4</MEAN_MOTION_DOT><MEAN_MOTION_DDOT>0</MEAN_MOTION_DDOT></tleParameters></data></segment></body></omm>
<omm id="CCSDS_OMM_VERS" version="2.0">
<header><CREATION_DATE/><ORIGINATOR/></header><body><segment><metadata><OBJECT_NAME>ORBCOMM FM113</OBJECT_NAME><OBJECT_ID>2015-081G</OBJECT_ID><CENTER_NAME>EARTH</CENTER_NAME><REF_FRAME>TEME</REF_FRAME><TIME_SYSTEM>UTC</TIME_SYSTEM><MEAN_ELEMENT_THEORY>SGP4</MEAN_ELEMENT_THEORY></metadata><data><meanElements><EPOCH>2024-10-28T10:15:21.998016</EPOCH><MEAN_MOTION>14.57275447</MEAN_MOTION><ECCENTRICITY>.0001138</ECCENTRICITY><INCLINATION>46.9995</INCLINATION><RA_OF_ASC_NODE>209.6096</RA_OF_ASC_NODE><ARG_OF_PERICENTER>69.2676</ARG_OF_PERICENTER><MEAN_ANOMALY>290.8331</MEAN_ANOMALY></meanElements><tleParameters><EPHEMERIS_TYPE>0</EPHEMERIS_TYPE><CLASSIFICATION_TYPE>U</CLASSIFICATION_TYPE><NORAD_CAT_ID>41185</NORAD_CAT_ID><ELEMENT_SET_NO>999</ELEMENT_SET_NO><REV_AT_EPOCH>47183</REV_AT_EPOCH><BSTAR>.11723E-2</BSTAR><MEAN_MOTION_DOT>.5189E-4</MEAN_MOTION_DOT><MEAN_MOTION_DDOT>0</MEAN_MOTION_DDOT></tleParameters></data></segment></body></omm>

</ndm>
