ORBCOMM FM103           
1 40091U 14040F   24302.60367691  .00003846  00000+0  87797-3 0  9993
2 40091  47.0063  30.8663 0002932 287.2219  72.8346 14.57309400530314
ORBCOMM FM114           
1 41179U 15081A   24302.49613853  .00003499  00000+0  80218-3 0  9993
2 41179  47.0020 300.5689 0002594 349.1256  10.9572 14.57312211470662
ORBCOMM FM119           
1 41180U 15081B   24302.47242660  .00003896  00000+0  88923-3 0  9999
2 41180  46.9993 209.9065 0000864  62.2558 297.8415 14.57287946471914
ORBCOMM FM105           
1 41181U 15081C   24302.38621325  .00001693  00000+0  52797-3 0  9992
2 41181  47.0008 193.0383 0001855 347.2831  12.8002 14.44772216467222
ORBCOMM FM110           
1 41182U 15081D   24302.40397859  .00004127  00000+0  93949-3 0  9997
2 41182  47.0009 300.3882 0000816 197.2307 162.8550 14.57307793470527
ORBCOMM FM118           
1 41183U 15081E   24302.38191547  .00004211  00000+0  95748-3 0  9994
2 41183  47.0033 300.8401 0001166 195.3287 164.7563 14.57320292470627
ORBCOMM FM112           
1 41184U 15081F   24302.45006643  .00005443  00000+0  12273-2 0  9994
2 41184  46.9979 209.2076 0001373  40.9413 319.1575 14.57296625471858
ORBCOMM FM113           
1 41185U 15081G   24302.42733794  .00005189  00000+0  11723-2 0  9992
2 41185  46.9995 209.6096 0001138  69.2676 290.8331 14.57275447471839
